BEIDOU 3 (C01)          
1 36287U 10001A   20252.49246535 -.00000283  00000-0  00000-0 0  9991
2 36287   1.5103  31.5214 0005429 125.7818 148.3906  1.00268580 39043
BEIDOU 5 (C06)          
1 36828U 10036A   20252.43790609 -.00000138  00000-0  10000-3 0  9993
2 36828  54.1691 182.2158 0101328 235.2541 206.2978  1.00290875 37083
BEIDOU 6 (C04)          
1 37210U 10057A   20252.63154836 -.00000115  00000-0  00000-0 0  9991
2 37210   0.9510  54.4553 0006078 123.1051 197.8706  1.00270813 36155
BEIDOU 7 (C07)          
1 37256U 10068A   20252.39281465 -.00000189  00000-0  00000-0 0  9996
2 37256  51.3427 297.3533 0082748 213.9672  96.9067  1.00287123 35669
BEIDOU 8 (C08)          
1 37384U 11013A   20252.53049713 -.00000161  00000-0  10000-3 0  9997
2 37384  59.3851  60.7539 0050607 200.8172  36.0466  1.00283001 34542
BEIDOU 9 (C09)          
1 37763U 11038A   20252.56731818 -.00000082  00000-0  10000-3 0  9994
2 37763  54.4517 184.6124 0073796 225.4050 238.3017  1.00277128 33514
BEIDOU 10 (C10)         
1 37948U 11073A   20252.12343709 -.00000134  00000-0  10000-3 0  9996
2 37948  51.4373 296.9569 0071637 215.0155 336.2319  1.00277177 32267
BEIDOU 11 (C05)         
1 38091U 12008A   20252.58616431  .00000054  00000-0  00000-0 0  9996
2 38091   1.6505  68.7355 0001263 266.1609 282.9987  1.00276644 31342
BEIDOU 12 (C11)         
1 38250U 12018A   20252.06327337 -.00000085  00000-0  10000-3 0  9990
2 38250  56.7461  14.9414 0021855 238.1800  85.6815  1.86234318 57028
BEIDOU 13 (C12)         
1 38251U 12018B   20252.09476698 -.00000085  00000-0  00000-0 0  9995
2 38251  56.6713  14.3080 0012757 236.7762 153.3207  1.86232625 57031
BEIDOU 15 (C14)         
1 38775U 12050B   20252.20684851 -.00000010  00000-0  00000-0 0  9995
2 38775  55.0879 133.5044 0014778 322.0594 339.8212  1.86232380 54402
BEIDOU 16 (C02)         
1 38953U 12059A   20252.69659738 -.00000177  00000-0  00000+0 0  9994
2 38953   1.2966  84.2814 0006003 261.7724 336.9004  1.00272349 28912
BEIDOU 17 (C31)         
1 40549U 15019A   20252.17650418 -.00000173  00000-0  00000-0 0  9993
2 40549  52.9340 320.2532 0040748 191.0222 357.0668  1.00269070 19947
BEIDOU 18 (C57)         
1 40748U 15037A   20252.63725721 -.00000086  00000-0  00000-0 0  9998
2 40748  55.9385  13.5459 0002044  47.9976 255.6752  1.86232022 34868
BEIDOU 19 (C58)         
1 40749U 15037B   20252.33236630 -.00000087  00000-0  00000-0 0  9993
2 40749  55.9401  13.5435 0002457 296.6805 299.6443  1.86232193 34857
BEIDOU 20 (C18)         
1 40938U 15053A   20252.55501350 -.00000085  00000-0  00000-0 0  9997
2 40938  52.4937 283.2824 0052206 191.3382 166.4264  1.00254697 18223
BEIDOU IGSO-6 (C13)     
1 41434U 16021A   20252.52825323 -.00000123  00000-0  00000+0 0  9993
2 41434  57.1549  59.6267 0040462 203.1085  10.5388  1.00283308 16354
BEIDOU-2 G7 (C03)       
1 41586U 16037A   20252.45641556 -.00000356  00000-0  00000-0 0  9993
2 41586   1.6582  66.5301 0007678   4.6075 191.6344  1.00277048 15653
BEIDOU-3 M1 (C19)       
1 43001U 17069A   20252.46442104 -.00000010  00000-0  00000+0 0  9998
2 43001  55.2424 133.4085 0009233 293.5246 337.7694  1.86231895 19343
BEIDOU-3 M2 (C20)       
1 43002U 17069B   20252.39712922 -.00000010  00000-0  00000+0 0  9999
2 43002  55.2429 133.4465 0008362 317.6017 312.3673  1.86231503 19338
BEIDOU-3 M3 (C27)       
1 43107U 18003A   20252.36460230 -.00000087  00000-0  00000+0 0  9997
2 43107  55.3742  14.7632 0004163  55.5479 358.4826  1.86232532 18103
BEIDOU-3 M4 (C28)       
1 43108U 18003B   20252.29613450 -.00000087  00000-0  00000-0 0  9995
2 43108  55.3666  14.7571 0003353 220.7882 192.4926  1.86232632 18103
BEIDOU-3 M5 (C21)       
1 43207U 18018A   20252.12736579 -.00000010  00000-0  00000-0 0  9997
2 43207  55.2009 133.5568 0006294 345.8242  14.2415  1.86231920 17488
BEIDOU-3 M6 (C22)       
1 43208U 18018B   20252.19412861 -.00000010  00000-0  00000+0 0  9999
2 43208  55.2005 133.5595 0007186 309.3205  50.6990  1.86231814 17484
BEIDOU-3 M7 (C29)       
1 43245U 18029A   20252.38845884 -.00000088  00000-0  00000+0 0  9993
2 43245  55.3177  12.5676 0000765 161.7939 178.2804  1.86232697 16639
BEIDOU-3 M8 (C30)       
1 43246U 18029B   20252.43162696 -.00000088  00000-0  10000-3 0  9998
2 43246  55.3160  12.5975 0002998 341.2894  73.6653  1.86233338 16632
BEIDOU IGSO-7 (C16)     
1 43539U 18057A   20252.58786274 -.00000129  00000-0  00000-0 0  9996
2 43539  55.0497 181.5040 0032158 217.8031 271.6032  1.00300291  8023
BEIDOU-3 M9 (C23)       
1 43581U 18062A   20252.29260310  .00000052  00000-0  00000-0 0  9999
2 43581  54.5300 254.2865 0006527 261.8177 269.4695  1.86231805 14374
BEIDOU-3 M10 (C24)      
1 43582U 18062B   20252.51916358  .00000055  00000-0  00000-0 0  9998
2 43582  54.5295 254.2696 0005003 315.1900  98.9897  1.86232109 14383
BEIDOU-3 M11 (C25)      
1 43602U 18067A   20252.63721089  .00000057  00000-0  00000-0 0  9996
2 43602  54.6004 252.8250 0006363 340.6725 195.4915  1.86231568 13878
BEIDOU-3 M12 (C26)      
1 43603U 18067B   20252.24771405  .00000053  00000-0  00000-0 0  9997
2 43603  54.5974 252.8060 0004202 320.7556 224.7879  1.86231516 13883
BEIDOU-3 M13 (C32)      
1 43622U 18072A   20252.33965909 -.00000010  00000-0  00000-0 0  9992
2 43622  55.1644 133.1261 0005866 293.6879 343.9379  1.86231961 13391
BEIDOU-3 M14 (C33)      
1 43623U 18072B   20252.52778741 -.00000011  00000-0  00000-0 0  9991
2 43623  55.1673 133.1118 0004975 325.3720 168.6092  1.86232014 13409
BEIDOU-3 M15 (C34)      
1 43647U 18078A   20252.25157240 -.00000089  00000-0  10000-3 0  9997
2 43647  55.2101  12.7856 0005327 350.9466 212.9933  1.86232801 12912
BEIDOU-3 M16 (C35)      
1 43648U 18078B   20252.09112639 -.00000089  00000-0  10000-3 0  9993
2 43648  55.2065  12.8008 0003368   7.7813 357.5360  1.86232315 12929
BEIDOU-3 G1 (C59)       
1 43683U 18085A   20252.64798058 -.00000280  00000-0  00000-0 0  9995
2 43683   1.5947 251.5229 0004259 346.2859 123.6797  1.00272561  6932
BEIDOU-3 M17 (C36)      
1 43706U 18093A   20252.48256204  .00000055  00000-0  00000-0 0  9993
2 43706  54.6099 254.1185 0012112 263.3809 260.2379  1.86231762 12276
BEIDOU-3 M18 (C37)      
1 43707U 18093B   20252.13761093  .00000051  00000-0  00000-0 0  9999
2 43707  54.6102 254.1213 0010402 281.4659 101.4735  1.86232045 12275
BEIDOU-3 IGSO-1 (C38)   
1 44204U 19023A   20252.38382697 -.00000183  00000-0  10000-3 0  9993
2 44204  55.6125  60.0020 0018321 178.6562   0.8806  1.00269022  5221
BEIDOU-2 G8             
1 44231U 19027A   20252.56506672 -.00000250  00000-0  00000-0 0  9999
2 44231   0.8030 299.9482 0008048 270.6768 125.4031  1.00269151  4955
BEIDOU-3 IGSO-2 (C39)   
1 44337U 19035A   20252.58734416 -.00000123  00000-0  00000+0 0  9994
2 44337  55.0746 177.5472 0014117 188.4506 301.1204  1.00265602  4567
BEIDOU-3 M23 (C45)      
1 44542U 19061A   20252.41600712  .00000055  00000-0  10000-3 0  9992
2 44542  54.8320 254.1356 0009172 306.8705 216.5924  1.86231357  6536
BEIDOU-3 M24 (C46)      
1 44543U 19061B   20252.43983003  .00000055  00000-0  10000-3 0  9992
2 44543  54.8313 254.1048 0007041 292.0439 157.8871  1.86231723  6546
BEIDOU-3 IGSO-3         
1 44709U 19073A   20252.32921051 -.00000144  00000-0  10000-3 0  9992
2 44709  58.2729 303.0574 0025571 190.1036  79.0612  1.00260213  3318
BEIDOU-3 M21            
1 44793U 19078A   20250.47938177 -.00000096  00000-0  10000-3 0  9997
2 44793  55.0606  12.9467 0005154 358.2324  52.3197  1.86232717  5360
BEIDOU-3 M22            
1 44794U 19078B   20252.16276991 -.00000089  00000-0  10000-3 0  9997
2 44794  55.0350  12.8951 0003244 354.2463  15.3791  1.86232982  5398
BEIDOU-3 M19            
1 44864U 19090A   20252.13617115 -.00000010  00000-0  00000-0 0  9993
2 44864  55.1007 133.3802 0014780 265.8644 280.6044  1.86231988  4971
BEIDOU-3 M20            
1 44865U 19090B   20252.47259071 -.00000011  00000-0  10000-3 0  9999
2 44865  55.1029 133.3998 0013866 282.9056 219.0569  1.86232005  4961
BEIDOU-3 G2             
1 45344U 20017A   20252.48042678 -.00000142  00000-0  00000-0 0  9998
2 45344   2.8335 329.7408 0002354 190.3181  80.9215  1.00273024  2122
BEIDOU-3 G3             
1 45807U 20040A   20252.45641556 -.00000356  00000-0  00000-0 0  9992
2 45807   2.9350 298.6596 0007117 348.8285 335.3039  1.00274985   938
